OSCAR 31                
1 19420U 88074B   26063.46282347  .00000095  00000+0  14892-3 0  9996
2 19420  90.0427  20.8832 0094810   8.6304 108.8172 13.42596920837473
